{
  "norad_id": 62463,
  "name": "STARLINK-11455 [DTC]",
  "history": [
    {
      "epoch": "2026-03-28T17:59:13.196256Z",
      "apogee_km": 356.832158149723,
      "perigee_km": 355.6611835170379,
      "latitude_deg": 1.0861577414752332e-05,
      "longitude_deg": 12.592891515172264,
      "height_km": 355.47031334528265,
      "semi_major_axis_km": 6734.38367083338,
      "eccentricity": 8.694e-05,
      "inclination_deg": 43.0019,
      "raan_deg": 108.5633,
      "arg_perigee_deg": 20.76,
      "mean_anomaly_deg": 339.3303,
      "mean_motion_rev_day": 15.70926909
    },
    {
      "epoch": "2026-03-29T01:37:00.253056Z",
      "apogee_km": 357.12141993464957,
      "perigee_km": 355.4660968542348,
      "latitude_deg": 1.371095735501828e-05,
      "longitude_deg": -104.08361771475131,
      "height_km": 356.076663409643,
      "semi_major_axis_km": 6734.430758394442,
      "eccentricity": 0.0001229,
      "inclination_deg": 43.0003,
      "raan_deg": 106.6462,
      "arg_perigee_deg": 269.2677,
      "mean_anomaly_deg": 90.805,
      "mean_motion_rev_day": 15.70910433
    },
    {
      "epoch": "2026-03-30T02:01:58.045440Z",
      "apogee_km": 357.4430923082864,
      "perigee_km": 355.9816299969161,
      "latitude_deg": 3.639931293868858e-05,
      "longitude_deg": -117.459326233023,
      "height_km": 356.1799723240541,
      "semi_major_axis_km": 6734.849361152601,
      "eccentricity": 0.0001085,
      "inclination_deg": 42.9997,
      "raan_deg": 100.514,
      "arg_perigee_deg": 294.6263,
      "mean_anomaly_deg": 65.4492,
      "mean_motion_rev_day": 15.70763976
    },
    {
      "epoch": "2026-03-30T11:11:20.667552Z",
      "apogee_km": 356.8986195419884,
      "perigee_km": 355.5749110346833,
      "latitude_deg": -2.8857027944416727e-05,
      "longitude_deg": 102.52001060235504,
      "height_km": 355.46832474825726,
      "semi_major_axis_km": 6734.373765288336,
      "eccentricity": 9.828e-05,
      "inclination_deg": 42.9995,
      "raan_deg": 98.2137,
      "arg_perigee_deg": 324.7003,
      "mean_anomaly_deg": 35.3799,
      "mean_motion_rev_day": 15.70930375
    },
    {
      "epoch": "2026-03-30T17:17:35.164896Z",
      "apogee_km": 356.6995081962823,
      "perigee_km": 355.76558582750204,
      "latitude_deg": 1.7290448547036996e-05,
      "longitude_deg": 9.176571023155653,
      "height_km": 355.539860673657,
      "semi_major_axis_km": 6734.369547011892,
      "eccentricity": 6.934e-05,
      "inclination_deg": 42.9999,
      "raan_deg": 96.6813,
      "arg_perigee_deg": 6.6706,
      "mean_anomaly_deg": 353.4171,
      "mean_motion_rev_day": 15.70931851
    },
    {
      "epoch": "2026-03-31T10:04:43.650624Z",
      "apogee_km": 357.2250227914792,
      "perigee_km": 355.63499152109034,
      "latitude_deg": 2.456667089538839e-05,
      "longitude_deg": 112.4858586823575,
      "height_km": 356.76741448930994,
      "semi_major_axis_km": 6734.5670071562845,
      "eccentricity": 0.00011805,
      "inclination_deg": 42.9997,
      "raan_deg": 92.4653,
      "arg_perigee_deg": 224.6506,
      "mean_anomaly_deg": 135.4267,
      "mean_motion_rev_day": 15.70862761
    },
    {
      "epoch": "2026-04-01T16:35:56.528736Z",
      "apogee_km": 357.19312127210924,
      "perigee_km": 355.3734809067546,
      "latitude_deg": 1.310422637384611e-05,
      "longitude_deg": 5.76326744676841,
      "height_km": 355.5620268321615,
      "semi_major_axis_km": 6734.420301089432,
      "eccentricity": 0.0001351,
      "inclination_deg": 43.0002,
      "raan_deg": 84.7998,
      "arg_perigee_deg": 57.3193,
      "mean_anomaly_deg": 302.7805,
      "mean_motion_rev_day": 15.70914092
    },
    {
      "epoch": "2026-04-02T07:51:30.554208Z",
      "apogee_km": 358.3614817101843,
      "perigee_km": 353.8043004255014,
      "latitude_deg": -1.90315805746122e-05,
      "longitude_deg": 132.41207758587444,
      "height_km": 355.7681288031599,
      "semi_major_axis_km": 6734.219891067843,
      "eccentricity": 0.00033836,
      "inclination_deg": 43.0053,
      "raan_deg": 80.9671,
      "arg_perigee_deg": 272.2434,
      "mean_anomaly_deg": 87.8046,
      "mean_motion_rev_day": 15.70984218
    },
    {
      "epoch": "2026-04-02T23:07:05.556864Z",
      "apogee_km": 356.9038376766657,
      "perigee_km": 354.63639647220407,
      "latitude_deg": 1.8068584919650733e-05,
      "longitude_deg": -100.94412136465337,
      "height_km": 356.6733580423204,
      "semi_major_axis_km": 6733.907117074435,
      "eccentricity": 0.00016836,
      "inclination_deg": 42.9985,
      "raan_deg": 77.1334,
      "arg_perigee_deg": 177.3773,
      "mean_anomaly_deg": 182.7104,
      "mean_motion_rev_day": 15.71093672
    },
    {
      "epoch": "2026-04-03T15:54:17.673120Z",
      "apogee_km": 357.28414076544595,
      "perigee_km": 355.65571281054963,
      "latitude_deg": 2.5113192887209756e-05,
      "longitude_deg": 2.3507964927187315,
      "height_km": 355.6324855872822,
      "semi_major_axis_km": 6734.6069267879975,
      "eccentricity": 0.0001209,
      "inclination_deg": 43.0001,
      "raan_deg": 72.9182,
      "arg_perigee_deg": 41.7105,
      "mean_anomaly_deg": 318.3855,
      "mean_motion_rev_day": 15.70848794
    },
    {
      "epoch": "2026-04-04T14:47:40.111872Z",
      "apogee_km": 356.9499562419642,
      "perigee_km": 354.7667949411971,
      "latitude_deg": -4.1048694901561665e-05,
      "longitude_deg": 12.31768944401726,
      "height_km": 355.1649006489305,
      "semi_major_axis_km": 6733.99537559158,
      "eccentricity": 0.0001621,
      "inclination_deg": 42.9998,
      "raan_deg": 67.1687,
      "arg_perigee_deg": 295.2715,
      "mean_anomaly_deg": 64.7984,
      "mean_motion_rev_day": 15.71062785
    },
    {
      "epoch": "2026-04-05T06:03:16.678368Z",
      "apogee_km": 358.20883404179585,
      "perigee_km": 354.37290392762225,
      "latitude_deg": 2.7781611550473433e-05,
      "longitude_deg": 138.955589227636,
      "height_km": 356.372247242475,
      "semi_major_axis_km": 6734.427868984709,
      "eccentricity": 0.0002848,
      "inclination_deg": 43.0035,
      "raan_deg": 63.3356,
      "arg_perigee_deg": 260.7727,
      "mean_anomaly_deg": 99.2819,
      "mean_motion_rev_day": 15.70911444
    },
    {
      "epoch": "2026-04-05T21:18:52.131168Z",
      "apogee_km": 356.5477780683286,
      "perigee_km": 355.51610338660885,
      "latitude_deg": -1.0055223676294563e-06,
      "longitude_deg": -94.39986229321498,
      "height_km": 355.9929244436776,
      "semi_major_axis_km": 6734.168940727468,
      "eccentricity": 7.66e-05,
      "inclination_deg": 42.9985,
      "raan_deg": 59.5046,
      "arg_perigee_deg": 248.4643,
      "mean_anomaly_deg": 111.6143,
      "mean_motion_rev_day": 15.71002047
    },
    {
      "epoch": "2026-04-06T06:28:13.564416Z",
      "apogee_km": 357.56928719286225,
      "perigee_km": 355.12264953045633,
      "latitude_deg": 2.5422950712657923e-05,
      "longitude_deg": 125.58613816155194,
      "height_km": 356.2928979095418,
      "semi_major_axis_km": 6734.482968361659,
      "eccentricity": 0.00018165,
      "inclination_deg": 43.0016,
      "raan_deg": 57.2059,
      "arg_perigee_deg": 261.8221,
      "mean_anomaly_deg": 98.2441,
      "mean_motion_rev_day": 15.70892165
    },
    {
      "epoch": "2026-04-07T05:21:36.875808Z",
      "apogee_km": 358.6142590757054,
      "perigee_km": 353.36231476443663,
      "latitude_deg": -1.0116018337525254e-05,
      "longitude_deg": 135.54881595846305,
      "height_km": 356.12442552170853,
      "semi_major_axis_km": 6734.125286920071,
      "eccentricity": 0.00038995,
      "inclination_deg": 43.0009,
      "raan_deg": 51.4558,
      "arg_perigee_deg": 262.0759,
      "mean_anomaly_deg": 97.9666,
      "mean_motion_rev_day": 15.71017323
    },
    {
      "epoch": "2026-04-07T20:37:13.227168Z",
      "apogee_km": 357.1709199973402,
      "perigee_km": 354.8274406065957,
      "latitude_deg": 5.431100140409724e-06,
      "longitude_deg": -97.81144326699791,
      "height_km": 356.40391562488776,
      "semi_major_axis_km": 6734.136180301968,
      "eccentricity": 0.000174,
      "inclination_deg": 43.0007,
      "raan_deg": 47.6237,
      "arg_perigee_deg": 237.3439,
      "mean_anomaly_deg": 122.7261,
      "mean_motion_rev_day": 15.71013511
    },
    {
      "epoch": "2026-04-08T05:46:34.472064Z",
      "apogee_km": 357.7390862496868,
      "perigee_km": 355.0163219548176,
      "latitude_deg": -3.513435381215165e-05,
      "longitude_deg": 122.17467241303694,
      "height_km": 356.51551988183235,
      "semi_major_axis_km": 6734.514704102252,
      "eccentricity": 0.00020215,
      "inclination_deg": 43.0003,
      "raan_deg": 45.3244,
      "arg_perigee_deg": 254.4502,
      "mean_anomaly_deg": 105.6142,
      "mean_motion_rev_day": 15.70881061
    },
    {
      "epoch": "2026-04-09T04:39:58.697568Z",
      "apogee_km": 357.53300222708094,
      "perigee_km": 354.1427152447013,
      "latitude_deg": 4.101097913189869e-05,
      "longitude_deg": 132.13414963105132,
      "height_km": 355.3211995058529,
      "semi_major_axis_km": 6733.974858735891,
      "eccentricity": 0.00025173,
      "inclination_deg": 42.9997,
      "raan_deg": 39.5748,
      "arg_perigee_deg": 279.8473,
      "mean_anomaly_deg": 80.2111,
      "mean_motion_rev_day": 15.71069965
    },
    {
      "epoch": "2026-04-10T06:36:29.084832Z",
      "apogee_km": 357.76153846715897,
      "perigee_km": 354.819536453143,
      "latitude_deg": -5.417414427797261e-05,
      "longitude_deg": 95.42684072091912,
      "height_km": 356.2678795740282,
      "semi_major_axis_km": 6734.42753746015,
      "eccentricity": 0.00021843,
      "inclination_deg": 43.0008,
      "raan_deg": 33.0596,
      "arg_perigee_deg": 262.019,
      "mean_anomaly_deg": 98.0429,
      "mean_motion_rev_day": 15.7091156
    }
  ]
}